[{"OBJECT_NAME":"ASTROCAST-0403","OBJECT_ID":"2023-001DG","EPOCH":"2026-03-09T19:45:35.762976","MEAN_MOTION":15.28004949,"ECCENTRICITY":0.00047706,"INCLINATION":97.5604,"RA_OF_ASC_NODE":161.3228,"ARG_OF_PERICENTER":338.0704,"MEAN_ANOMALY":22.033,"EPHEMERIS_TYPE":0,"CLASSIFICATION_TYPE":"U","NORAD_CAT_ID":55111,"ELEMENT_SET_NO":999,"REV_AT_EPOCH":12937,"BSTAR":0.0005131719,"MEAN_MOTION_DOT":0.00013959,"MEAN_MOTION_DDOT":0},{"OBJECT_NAME":"STARLINK-35475","OBJECT_ID":"2025-223M","EPOCH":"2026-03-08T22:17:55.987008","MEAN_MOTION":15.302029,"ECCENTRICITY":0.0001193,"INCLINATION":53.1572,"RA_OF_ASC_NODE":297.3932,"ARG_OF_PERICENTER":75.081,"MEAN_ANOMALY":285.0323,"EPHEMERIS_TYPE":0,"CLASSIFICATION_TYPE":"U","NORAD_CAT_ID":65865,"ELEMENT_SET_NO":999,"REV_AT_EPOCH":2409,"BSTAR":0.00050900752,"MEAN_MOTION_DOT":0.00014747,"MEAN_MOTION_DDOT":0}]
