ASTROCAST-0403          
1 55111U 23001DG  26068.82333059  .00013959  00000+0  51317-3 0  9990
2 55111  97.5604 161.3228 0004771 338.0704  22.0330 15.28004949129377
STARLINK-35475          
1 65865U 25223M   26067.92912022  .00014747  00000+0  50901-3 0  9992
2 65865  53.1572 297.3932 0001193  75.0810 285.0323 15.30202900 24095
